[{"OBJECT_NAME":"ROADS 1","OBJECT_ID":"2025-135H","EPOCH":"2026-03-09T20:30:26.589888","MEAN_MOTION":15.21189252,"ECCENTRICITY":0.00052629,"INCLINATION":97.4546,"RA_OF_ASC_NODE":184.7054,"ARG_OF_PERICENTER":153.667,"MEAN_ANOMALY":206.4834,"EPHEMERIS_TYPE":0,"CLASSIFICATION_TYPE":"U","NORAD_CAT_ID":64535,"ELEMENT_SET_NO":999,"REV_AT_EPOCH":3975,"BSTAR":0.00040940157,"MEAN_MOTION_DOT":9.066e-5,"MEAN_MOTION_DDOT":0},{"OBJECT_NAME":"SL-8 DEB","OBJECT_ID":"1977-059D","EPOCH":"2026-03-09T17:54:55.494432","MEAN_MOTION":15.2130551,"ECCENTRICITY":0.0004146,"INCLINATION":74.0432,"RA_OF_ASC_NODE":189.1557,"ARG_OF_PERICENTER":2.1163,"MEAN_ANOMALY":118.2856,"EPHEMERIS_TYPE":0,"CLASSIFICATION_TYPE":"U","NORAD_CAT_ID":14818,"ELEMENT_SET_NO":999,"REV_AT_EPOCH":40248,"BSTAR":0.0014031002,"MEAN_MOTION_DOT":0.00031504,"MEAN_MOTION_DDOT":0}]
